[{"OBJECT_NAME":"STARLINK-30516","OBJECT_ID":"2023-151W","EPOCH":"2026-03-09T04:28:17.903712","MEAN_MOTION":15.02532534,"ECCENTRICITY":0.00013964,"INCLINATION":43.0067,"RA_OF_ASC_NODE":354.6049,"ARG_OF_PERICENTER":263.8526,"MEAN_ANOMALY":96.2158,"EPHEMERIS_TYPE":0,"CLASSIFICATION_TYPE":"U","NORAD_CAT_ID":57984,"ELEMENT_SET_NO":999,"REV_AT_EPOCH":13550,"BSTAR":-5.3591274e-5,"MEAN_MOTION_DOT":-9.27e-6,"MEAN_MOTION_DDOT":0},{"OBJECT_NAME":"CZ-6A DEB","OBJECT_ID":"2024-140YY","EPOCH":"2026-03-09T15:15:28.032768","MEAN_MOTION":14.69472827,"ECCENTRICITY":0.0160908,"INCLINATION":89.1265,"RA_OF_ASC_NODE":290.2206,"ARG_OF_PERICENTER":193.4345,"MEAN_ANOMALY":166.2567,"EPHEMERIS_TYPE":0,"CLASSIFICATION_TYPE":"U","NORAD_CAT_ID":61431,"ELEMENT_SET_NO":999,"REV_AT_EPOCH":8282,"BSTAR":0.00043047,"MEAN_MOTION_DOT":3.133e-5,"MEAN_MOTION_DDOT":0}]
